{"type":"FeatureCollection","attribution":"\u00a9 OpenStreetMap contributors, ODbL","features":[{"type":"Feature","properties":{"osm_id":5957164,"highway":"residential","name":"Cominito Solidago"},"geometry":{"type":"LineString","coordinates":[[-117.250979,32.818803],[-117.2509997,32.8184459]]}},{"type":"Feature","properties":{"osm_id":5958172,"highway":"residential","name":"Via Ladeta"},"geometry":{"type":"LineString","coordinates":[[-117.2506526,32.8246507],[-117.2505047,32.8247499],[-117.2481459,32.8252522],[-117.2480372,32.8252694],[-117.2479364,32.825268],[-117.2478338,32.825253],[-117.2476104,32.8251796],[-117.247566,32.825165],[-117.247513,32.82513]]}},{"type":"Feature","properties":{"osm_id":5958173,"highway":"residential","name":"Citadel Circle"},"geometry":{"type":"LineString","coordinates":[[-117.255943,32.823414],[-117.255997,32.823425],[-117.256088,32.823524],[-117.256264,32.823792],[-117.256317,32.824017]]}},{"type":"Feature","properties":{"osm_id":5958296,"highway":"residential","name":"Calle Altura"},"geometry":{"type":"LineString","coordinates":[[-117.256599,32.815601],[-117.255943,32.815231],[-117.2553308,32.8148815],[-117.2551569,32.8148654]]}},{"type":"Feature","properties":{"osm_id":5958302,"highway":"residential","name":"Avenida Amantea"},"geometry":{"type":"LineString","coordinates":[[-117.263313,32.81831],[-117.263283,32.818279],[-117.263153,32.818222],[-117.263077,32.818214],[-117.262123,32.818295],[-117.262032,32.818329],[-117.261909,32.818344],[-117.261627,32.818325],[-117.261513,32.818359],[-117.261391,32.818478],[-117.261299,32.818817],[-117.261223,32.818901],[-117.261124,32.818966],[-117.260834,32.81905],[-117.260307,32.819122]]}},{"type":"Feature","properties":{"osm_id":5958735,"highway":"tertiary","name":"Linda Rosa Avenue"},"geometry":{"type":"LineString","coordinates":[[-117.2602746,32.8127609],[-117.2604475,32.8128374],[-117.2605904,32.8129171],[-117.2616907,32.8138571],[-117.2631993,32.8151329],[-117.2632405,32.8151433]]}},{"type":"Feature","properties":{"osm_id":5959247,"highway":"residential","name":"Caminito Genio"},"geometry":{"type":"LineString","coordinates":[[-117.2515944,32.8162897],[-117.2516414,32.8163121],[-117.2516936,32.816354],[-117.251701,32.81641],[-117.251663,32.816799],[-117.251663,32.817005],[-117.251694,32.817226],[-117.251762,32.817726],[-117.251813,32.8180904]]}},{"type":"Feature","properties":{"osm_id":5959313,"highway":"residential","name":"Caminito Arriata"},"geometry":{"type":"LineString","coordinates":[[-117.25251,32.8148842],[-117.2521664,32.8147311],[-117.2520207,32.8147012],[-117.2512731,32.814674],[-117.2507526,32.8146526],[-117.2503881,32.814589],[-117.250229,32.81459],[-117.250107,32.814644],[-117.250023,32.81472],[-117.249809,32.815079],[-117.249634,32.815392]]}},{"type":"Feature","properties":{"osm_id":5959509,"highway":"residential","name":"Bellevue Avenue"},"geometry":{"type":"LineString","coordinates":[[-117.261851,32.8117732],[-117.2619002,32.8117938],[-117.2623007,32.8121102],[-117.2638063,32.8133921],[-117.26532,32.814682]]}},{"type":"Feature","properties":{"osm_id":5960450,"highway":"residential","name":"Caminito Solidago"},"geometry":{"type":"LineString","coordinates":[[-117.250168,32.820511],[-117.250427,32.82056],[-117.250687,32.820683],[-117.250877,32.820755],[-117.250954,32.820763],[-117.25103,32.820751],[-117.251106,32.820724],[-117.251213,32.820656],[-117.251503,32.82011],[-117.251579,32.819843],[-117.251602,32.819679],[-117.251602,32.819515],[-117.251534,32.819046],[-117.251419,32.818905],[-117.251343,32.818859],[-117.251221,32.818821],[-117.250979,32.818803],[-117.250664,32.818764],[-117.250237,32.818737],[-117.250228,32.818739],[-117.250099,32.818775],[-117.2496459,32.8190143]]}},{"type":"Feature","properties":{"osm_id":5960451,"highway":"residential","name":"Caminito Solidago"},"geometry":{"type":"LineString","coordinates":[[-117.250228,32.818739],[-117.2502267,32.818346]]}},{"type":"Feature","properties":{"osm_id":5960568,"highway":"tertiary","name":"La Jolla Scenic Drive South"},"geometry":{"type":"LineString","coordinates":[[-117.257462,32.823746],[-117.256317,32.824017],[-117.2557683,32.8241495],[-117.255592,32.824192],[-117.2553688,32.8242482]]}},{"type":"Feature","properties":{"osm_id":5960570,"highway":"tertiary","name":"La Jolla Scenic Drive South"},"geometry":{"type":"LineString","coordinates":[[-117.2553688,32.8242482],[-117.255363,32.824841],[-117.255333,32.824974],[-117.25528,32.825089],[-117.255203,32.825172],[-117.255096,32.82523],[-117.2548198,32.8253238],[-117.254501,32.825432],[-117.254257,32.825577],[-117.2539209,32.8259769],[-117.253693,32.826248],[-117.253647,32.82634],[-117.253616,32.826488],[-117.253632,32.826569],[-117.253899,32.827427],[-117.2541789,32.8282779],[-117.254303,32.828655],[-117.254318,32.828766],[-117.254333,32.82885],[-117.2543119,32.8290516],[-117.254303,32.829136],[-117.254211,32.829445],[-117.254173,32.829521],[-117.254021,32.829716],[-117.252899,32.830826],[-117.25174,32.831974],[-117.251694,32.832027],[-117.251411,32.832226],[-117.250504,32.832748],[-117.25016,32.832951]]}},{"type":"Feature","properties":{"osm_id":5960990,"highway":"residential","name":"Rodeo Drive"},"geometry":{"type":"LineString","coordinates":[[-117.261627,32.822964],[-117.261833,32.823528],[-117.261833,32.823658],[-117.261803,32.823734],[-117.261726,32.823841],[-117.261459,32.8241],[-117.261307,32.824184],[-117.261093,32.824276],[-117.260986,32.824345],[-117.260933,32.824444],[-117.260834,32.824562],[-117.260674,32.824631],[-117.260223,32.824776],[-117.259933,32.824886],[-117.259811,32.824963],[-117.259666,32.825096],[-117.259567,32.825356],[-117.2595593,32.825523]]}},{"type":"Feature","properties":{"osm_id":5961719,"highway":"residential","name":"Candlelight Place"},"geometry":{"type":"LineString","coordinates":[[-117.2593905,32.8125183],[-117.259041,32.812469],[-117.258842,32.812492],[-117.258423,32.812584],[-117.257507,32.81279],[-117.257477,32.812813],[-117.257477,32.812878],[-117.257736,32.813221]]}},{"type":"Feature","properties":{"osm_id":5962331,"highway":"residential","name":"Warbler Way"},"geometry":{"type":"LineString","coordinates":[[-117.2615143,32.8156599],[-117.261223,32.816101],[-117.261192,32.816208],[-117.2612,32.816307]]}},{"type":"Feature","properties":{"osm_id":5963106,"highway":"residential","name":"Alta Bahia Court"},"geometry":{"type":"LineString","coordinates":[[-117.2493744,32.8122573],[-117.2494287,32.8124691],[-117.24955,32.812866],[-117.24955,32.81295],[-117.249451,32.813259],[-117.249382,32.813358],[-117.249313,32.813385],[-117.248909,32.813251]]}},{"type":"Feature","properties":{"osm_id":5963198,"highway":"residential","name":"Bayard Street"},"geometry":{"type":"LineString","coordinates":[[-117.2558154,32.8054877],[-117.2558506,32.805598],[-117.255981,32.806007],[-117.255989,32.80603],[-117.2561058,32.806411],[-117.256119,32.806477],[-117.2561572,32.8065874],[-117.256264,32.806934],[-117.2563672,32.8073132],[-117.2563868,32.8073853],[-117.2564126,32.8074759],[-117.2565168,32.8078308],[-117.2566545,32.8082795],[-117.256783,32.808712],[-117.2568065,32.8087915],[-117.2568824,32.809049],[-117.2569077,32.8091348]]}},{"type":"Feature","properties":{"osm_id":5966676,"highway":"residential","name":"Deerhill Court"},"geometry":{"type":"LineString","coordinates":[[-117.258522,32.82037],[-117.2592786,32.820466],[-117.2593564,32.820604]]}},{"type":"Feature","properties":{"osm_id":5967173,"highway":"residential","name":"Kirkwood Place"},"geometry":{"type":"LineString","coordinates":[[-117.262657,32.808975],[-117.2623464,32.8092288],[-117.262285,32.809279],[-117.2619074,32.8095976]]}},{"type":"Feature","properties":{"osm_id":5969474,"highway":"residential","name":"Caminito Danzarin"},"geometry":{"type":"LineString","coordinates":[[-117.2519322,32.8182362],[-117.2519297,32.818344],[-117.2518717,32.8184453],[-117.251922,32.8185808],[-117.2519,32.818645],[-117.251793,32.818729],[-117.251572,32.818794],[-117.251419,32.818905]]}},{"type":"Feature","properties":{"osm_id":5970031,"highway":"residential","name":"Agate Street"},"geometry":{"type":"LineString","coordinates":[[-117.2612179,32.8092653],[-117.2609698,32.8093221],[-117.2595789,32.8096238],[-117.2558257,32.8104424],[-117.2557234,32.8104644],[-117.2556499,32.8104812],[-117.2554151,32.8105309],[-117.2540073,32.8108308],[-117.2517701,32.8113044],[-117.2504691,32.8115897],[-117.2503762,32.8116101]]}},{"type":"Feature","properties":{"osm_id":5970140,"highway":"residential","name":"Caminito Pulsera"},"geometry":{"type":"LineString","coordinates":[[-117.250664,32.818764],[-117.250633,32.818966],[-117.250641,32.819035],[-117.250893,32.819775],[-117.2509482,32.8198751],[-117.2509145,32.8200077],[-117.250923,32.820148]]}},{"type":"Feature","properties":{"osm_id":5970391,"highway":"residential","name":"Ladybird Lane"},"geometry":{"type":"LineString","coordinates":[[-117.260323,32.814255],[-117.260147,32.815193],[-117.260078,32.815315],[-117.259987,32.815395],[-117.259773,32.815659],[-117.259697,32.815826],[-117.259697,32.815975],[-117.259758,32.816116],[-117.25985,32.816223],[-117.260643,32.817165]]}},{"type":"Feature","properties":{"osm_id":5970478,"highway":"residential","name":"Bucknell Avenue"},"geometry":{"type":"LineString","coordinates":[[-117.253036,32.821739],[-117.253464,32.822376]]}},{"type":"Feature","properties":{"osm_id":5970655,"highway":"residential","name":"Caminito Balada"},"geometry":{"type":"LineString","coordinates":[[-117.251938,32.815662],[-117.251663,32.815617],[-117.251244,32.815613],[-117.250603,32.815575],[-117.249733,32.815434],[-117.249634,32.815392],[-117.2494796,32.8153364]]}},{"type":"Feature","properties":{"osm_id":5972847,"highway":"residential","name":"Caminito Floreo"},"geometry":{"type":"LineString","coordinates":[[-117.252159,32.815403],[-117.251984,32.815311],[-117.251732,32.815266],[-117.251266,32.815266],[-117.250687,32.815231],[-117.249809,32.815079]]}},{"type":"Feature","properties":{"osm_id":5975294,"highway":"residential","name":"Cottontail Lane"},"geometry":{"type":"LineString","coordinates":[[-117.261627,32.822964],[-117.261467,32.822559],[-117.261429,32.822414],[-117.261276,32.822205],[-117.261108,32.822079],[-117.260559,32.82169],[-117.260468,32.821655],[-117.259499,32.821453],[-117.259331,32.821449],[-117.259064,32.821503],[-117.258797,32.821507],[-117.258293,32.821392]]}},{"type":"Feature","properties":{"osm_id":5975311,"highway":"residential","name":"Caminito del Estio"},"geometry":{"type":"LineString","coordinates":[[-117.25103,32.820751],[-117.251083,32.820824],[-117.251106,32.820915],[-117.251083,32.820999],[-117.251038,32.82106],[-117.250908,32.821136],[-117.2506239,32.821191],[-117.2505331,32.8211683]]}},{"type":"Feature","properties":{"osm_id":5975548,"highway":"residential","name":"La Jolla Rancho Road"},"geometry":{"type":"LineString","coordinates":[[-117.2667993,32.8188217],[-117.266876,32.819069],[-117.266869,32.819248],[-117.266617,32.820004],[-117.266563,32.820087],[-117.266403,32.820229],[-117.266228,32.820332],[-117.266083,32.820389],[-117.265953,32.820415],[-117.265663,32.820419],[-117.265488,32.8204],[-117.265358,32.820374],[-117.265106,32.820286],[-117.264717,32.820107],[-117.264397,32.819908],[-117.263878,32.81953],[-117.263687,32.819447],[-117.26339,32.819328],[-117.263283,32.819321],[-117.263153,32.819336],[-117.263046,32.819397],[-117.262894,32.819675],[-117.262627,32.820179],[-117.262627,32.820343],[-117.262657,32.820423],[-117.262703,32.820477],[-117.263313,32.821297],[-117.263359,32.821491],[-117.263344,32.821613],[-117.26329,32.821728],[-117.263229,32.821827],[-117.26313,32.821915],[-117.262254,32.822526],[-117.261627,32.822964],[-117.260933,32.823425],[-117.260582,32.823574],[-117.259689,32.823856],[-117.259277,32.824066],[-117.259041,32.824265],[-117.258957,32.824341],[-117.258774,32.824627],[-117.2586316,32.8250507],[-117.258568,32.8253416]]}},{"type":"Feature","properties":{"osm_id":5975576,"highway":"tertiary","name":"La Jolla Mesa Drive"},"geometry":{"type":"LineString","coordinates":[[-117.259399,32.816513],[-117.260071,32.817303],[-117.260117,32.81739],[-117.260178,32.817577],[-117.260193,32.817726],[-117.260162,32.817886],[-117.260094,32.818043],[-117.259933,32.818249],[-117.259392,32.818642]]}},{"type":"Feature","properties":{"osm_id":5975974,"highway":"residential","name":"Vista Claridad"},"geometry":{"type":"LineString","coordinates":[[-117.256592,32.819267],[-117.256691,32.819195],[-117.256882,32.818993],[-117.257217,32.818386],[-117.257271,32.818241],[-117.257301,32.818012],[-117.257263,32.817783],[-117.257088,32.817493],[-117.256844,32.817234],[-117.256767,32.817188],[-117.25663,32.817139],[-117.256058,32.817028],[-117.255959,32.817028]]}},{"type":"Feature","properties":{"osm_id":5979319,"highway":"residential","name":"Caminito Bayo"},"geometry":{"type":"LineString","coordinates":[[-117.2530257,32.8137357],[-117.253036,32.813942],[-117.2530317,32.8139765],[-117.2530191,32.8140765],[-117.2529367,32.8142528],[-117.2527807,32.8145113],[-117.25251,32.8148842],[-117.252312,32.815205],[-117.252159,32.815403],[-117.251938,32.815662]]}},{"type":"Feature","properties":{"osm_id":5979835,"highway":"residential","name":"Via Callado"},"geometry":{"type":"LineString","coordinates":[[-117.255943,32.815231],[-117.255814,32.815403],[-117.255623,32.815552],[-117.255379,32.815651],[-117.255257,32.815678],[-117.2551013,32.8157011],[-117.254997,32.815643]]}},{"type":"Feature","properties":{"osm_id":5979972,"highway":"residential","name":"Candlelight Drive"},"geometry":{"type":"LineString","coordinates":[[-117.258205,32.8118344],[-117.258324,32.812233],[-117.258423,32.812584],[-117.258507,32.813004],[-117.258728,32.814346],[-117.258247,32.815208],[-117.258087,32.815502],[-117.258011,32.815823],[-117.258003,32.81596],[-117.257973,32.816067],[-117.257858,32.816277],[-117.257713,32.816425],[-117.256767,32.817188]]}},{"type":"Feature","properties":{"osm_id":5980852,"highway":"residential","name":"Copa de Oro Drive"},"geometry":{"type":"LineString","coordinates":[[-117.255524,32.817135],[-117.255531,32.817268],[-117.255569,32.81736],[-117.25563,32.81744],[-117.255692,32.817486],[-117.256126,32.817944],[-117.256203,32.818115],[-117.256203,32.818291],[-117.256104,32.818497],[-117.255951,32.818642],[-117.255783,32.818729],[-117.255577,32.818783],[-117.255096,32.818882],[-117.254539,32.818928],[-117.254204,32.818924]]}},{"type":"Feature","properties":{"osm_id":5982647,"highway":"residential","name":"Germaine Lane"},"geometry":{"type":"LineString","coordinates":[[-117.261108,32.822079],[-117.26088,32.822273],[-117.260612,32.822426],[-117.260452,32.822487],[-117.259262,32.822781],[-117.259102,32.822853],[-117.258957,32.822964],[-117.258827,32.823158],[-117.258789,32.823277],[-117.258789,32.823528],[-117.258797,32.823742],[-117.25885,32.824013],[-117.258942,32.824173],[-117.259041,32.824265]]}},{"type":"Feature","properties":{"osm_id":5983715,"highway":"residential","name":"Via Sinalda"},"geometry":{"type":"LineString","coordinates":[[-117.248207,32.824043],[-117.2483167,32.8241181],[-117.248466,32.824181],[-117.24868,32.824249],[-117.2488839,32.8243015],[-117.2490557,32.8243195],[-117.2492236,32.8243174],[-117.2494523,32.8242858],[-117.2501253,32.8241331],[-117.2502368,32.8240381]]}},{"type":"Feature","properties":{"osm_id":5985324,"highway":"residential","name":"Skylark Place"},"geometry":{"type":"LineString","coordinates":[[-117.261902,32.81744],[-117.262123,32.818295],[-117.2622077,32.818753]]}},{"type":"Feature","properties":{"osm_id":5985821,"highway":"residential","name":"Clemson Circle"},"geometry":{"type":"LineString","coordinates":[[-117.2558064,32.821402],[-117.255157,32.82127]]}},{"type":"Feature","properties":{"osm_id":5986832,"highway":"residential","name":"Rutgers Road"},"geometry":{"type":"LineString","coordinates":[[-117.25676,32.813431],[-117.256363,32.813354],[-117.25621,32.813354],[-117.255997,32.81348],[-117.255836,32.813782],[-117.255783,32.814026],[-117.255859,32.814095],[-117.256363,32.814194],[-117.256523,32.814327],[-117.256699,32.814953],[-117.256721,32.815216],[-117.256653,32.815502],[-117.256599,32.815601],[-117.2561796,32.8163106],[-117.2561184,32.8164599],[-117.255959,32.817028]]}},{"type":"Feature","properties":{"osm_id":5986837,"highway":"residential","name":"Rutgers Road"},"geometry":{"type":"LineString","coordinates":[[-117.255959,32.817028],[-117.255829,32.817043],[-117.255524,32.817135],[-117.254967,32.817295],[-117.254753,32.817429],[-117.25457,32.817581],[-117.254379,32.817856],[-117.254311,32.818066],[-117.254204,32.818924],[-117.254173,32.819115],[-117.254173,32.819252],[-117.254204,32.819469],[-117.254272,32.819649],[-117.254402,32.819843],[-117.254509,32.819965],[-117.254753,32.820175],[-117.254913,32.820335],[-117.255028,32.820568],[-117.255127,32.820847],[-117.255157,32.821049],[-117.255157,32.82127],[-117.255157,32.821392],[-117.255096,32.821701],[-117.254829,32.822456],[-117.254761,32.822651],[-117.254707,32.822884],[-117.254677,32.823189],[-117.254677,32.823406],[-117.254707,32.823631],[-117.254807,32.823849],[-117.254936,32.824017],[-117.255127,32.824142],[-117.255241,32.824188],[-117.2553688,32.8242482]]}},{"type":"Feature","properties":{"osm_id":5989439,"highway":"residential","name":"Archer Street"},"geometry":{"type":"LineString","coordinates":[[-117.261489,32.8101708],[-117.25985,32.8105306],[-117.2597302,32.8105612],[-117.2560927,32.8113504],[-117.254257,32.811714],[-117.252663,32.812065],[-117.25058,32.812519]]}},{"type":"Feature","properties":{"osm_id":5991829,"highway":"tertiary","name":"Cass Street"},"geometry":{"type":"LineString","coordinates":[[-117.2544055,32.8057959],[-117.2544792,32.806026],[-117.254578,32.806335],[-117.254707,32.806782],[-117.2548028,32.8070639],[-117.25486,32.807232],[-117.2548987,32.8073646],[-117.25499,32.807678],[-117.255127,32.808125],[-117.2552611,32.8085801],[-117.255338,32.8088499],[-117.255386,32.809013]]}},{"type":"Feature","properties":{"osm_id":5991970,"highway":"residential","name":"Bahia Vista Way"},"geometry":{"type":"LineString","coordinates":[[-117.2561184,32.8164599],[-117.2560413,32.8164465],[-117.2559093,32.816434],[-117.2557043,32.8164453],[-117.2542676,32.8166419],[-117.2542086,32.8166667],[-117.2541462,32.8167101]]}},{"type":"Feature","properties":{"osm_id":5997716,"highway":"residential","name":"Colgate Circle"},"geometry":{"type":"LineString","coordinates":[[-117.254829,32.822456],[-117.254478,32.82235],[-117.254066,32.822292],[-117.253723,32.822296],[-117.253578,32.82233],[-117.253464,32.822376],[-117.253342,32.822437],[-117.253227,32.822517],[-117.253067,32.822708],[-117.2530038,32.8228426],[-117.252983,32.822887],[-117.252937,32.823032],[-117.252907,32.82333],[-117.25293,32.823509],[-117.252998,32.823761],[-117.2530387,32.8238387],[-117.253128,32.824009],[-117.253197,32.824085],[-117.25341,32.824257]]}},{"type":"Feature","properties":{"osm_id":5997809,"highway":"residential","name":"Caminito Halago"},"geometry":{"type":"LineString","coordinates":[[-117.251663,32.816799],[-117.2515773,32.8167908],[-117.249969,32.816711],[-117.249527,32.816711],[-117.249046,32.816753],[-117.248619,32.816822],[-117.2482454,32.816908],[-117.248064,32.8168952]]}},{"type":"Feature","properties":{"osm_id":6001000,"highway":"residential","name":"Box Canyon Road"},"geometry":{"type":"LineString","coordinates":[[-117.262703,32.820477],[-117.262001,32.820858],[-117.261917,32.820992],[-117.261917,32.82106],[-117.262093,32.821514]]}},{"type":"Feature","properties":{"osm_id":6001669,"highway":"residential","name":"Carla Way"},"geometry":{"type":"LineString","coordinates":[[-117.2623863,32.8100894],[-117.2624003,32.8101592],[-117.2624406,32.8102289],[-117.2625542,32.8103277],[-117.2625998,32.8103484],[-117.2626758,32.8103706],[-117.2627667,32.8103637],[-117.262828,32.810329],[-117.262875,32.8102763],[-117.2628709,32.8102109],[-117.2628509,32.8101495],[-117.2628055,32.810078],[-117.2627306,32.810017],[-117.2626389,32.8099703],[-117.2625457,32.8099553],[-117.2624491,32.810009],[-117.2623863,32.8100894]]}},{"type":"Feature","properties":{"osm_id":6002835,"highway":"residential","name":"Caminito Faro"},"geometry":{"type":"LineString","coordinates":[[-117.248512,32.816071],[-117.2487621,32.8162212],[-117.248848,32.816273],[-117.249603,32.816212],[-117.250137,32.816219],[-117.2515944,32.8162897]]}},{"type":"Feature","properties":{"osm_id":6003228,"highway":"residential","name":"Via Corona"},"geometry":{"type":"LineString","coordinates":[[-117.255203,32.818306],[-117.255333,32.81842],[-117.255524,32.818668],[-117.255577,32.818783],[-117.255653,32.818947],[-117.255669,32.819111],[-117.25563,32.819252],[-117.255493,32.819427],[-117.25531,32.819527],[-117.254822,32.81966],[-117.254402,32.819843]]}},{"type":"Feature","properties":{"osm_id":6003388,"highway":"residential","name":"Caminito Empresa"},"geometry":{"type":"LineString","coordinates":[[-117.24931,32.8184727],[-117.2493365,32.8185951],[-117.2496459,32.8190143],[-117.2497289,32.8191262],[-117.2498767,32.8193641],[-117.250092,32.819798],[-117.2501749,32.8201658],[-117.250191,32.82032],[-117.250168,32.820511],[-117.250137,32.820675],[-117.250094,32.820827],[-117.250023,32.821033],[-117.249924,32.821274],[-117.2496835,32.8216956],[-117.2496049,32.8217744],[-117.249451,32.821762],[-117.249265,32.8217]]}},{"type":"Feature","properties":{"osm_id":6005396,"highway":"residential","name":"Caminito Diadema"},"geometry":{"type":"LineString","coordinates":[[-117.251694,32.817226],[-117.2515976,32.8172407],[-117.251457,32.817261],[-117.251266,32.817268],[-117.249893,32.817207],[-117.249367,32.817219],[-117.249077,32.817249],[-117.248787,32.817303],[-117.2480717,32.8174754],[-117.247878,32.8174694]]}},{"type":"Feature","properties":{"osm_id":6007511,"highway":"residential","name":"Van Nuys Street"},"geometry":{"type":"LineString","coordinates":[[-117.2643653,32.8104251],[-117.2642864,32.8104688],[-117.2638391,32.8105668],[-117.2627828,32.8108031],[-117.2626804,32.810826],[-117.2617502,32.811056],[-117.260116,32.8114221]]}},{"type":"Feature","properties":{"osm_id":6007514,"highway":"residential","name":"Van Nuys Street"},"geometry":{"type":"LineString","coordinates":[[-117.25486,32.812519],[-117.254128,32.812683],[-117.253326,32.812862],[-117.253067,32.812901],[-117.252899,32.812885],[-117.252708,32.81284],[-117.252602,32.812798]]}},{"type":"Feature","properties":{"osm_id":6007515,"highway":"residential","name":"Van Nuys Street"},"geometry":{"type":"LineString","coordinates":[[-117.252602,32.812798],[-117.252472,32.813011],[-117.252403,32.813072],[-117.252296,32.813118],[-117.251137,32.813358]]}},{"type":"Feature","properties":{"osm_id":6008593,"highway":"residential","name":"Moonlight Lane"},"geometry":{"type":"LineString","coordinates":[[-117.258247,32.815208],[-117.25808,32.815151],[-117.257896,32.815041],[-117.25779,32.814934],[-117.25766,32.814697],[-117.257622,32.814285],[-117.257538,32.814064],[-117.257212,32.813681],[-117.256973,32.813511],[-117.25676,32.813431]]}},{"type":"Feature","properties":{"osm_id":6010377,"highway":"residential","name":"Caminito Batea"},"geometry":{"type":"LineString","coordinates":[[-117.251762,32.817726],[-117.2516611,32.8177383],[-117.251488,32.817757],[-117.251312,32.81776],[-117.24968,32.81768],[-117.249252,32.817711],[-117.248332,32.8179005],[-117.2481648,32.8178929]]}},{"type":"Feature","properties":{"osm_id":6010729,"highway":"residential","name":"Skylark Drive"},"geometry":{"type":"LineString","coordinates":[[-117.2633994,32.8164262],[-117.263123,32.816372],[-117.262947,32.816402],[-117.262894,32.816425],[-117.262787,32.816509],[-117.26265,32.816662],[-117.262527,32.816845],[-117.262497,32.816967],[-117.262497,32.817081],[-117.262444,32.817207],[-117.262299,32.81731],[-117.262154,32.817383],[-117.261902,32.81744],[-117.261818,32.817448],[-117.261627,32.817421],[-117.261543,32.817379],[-117.261467,32.817303],[-117.261436,32.817238],[-117.261436,32.817154],[-117.261597,32.816818],[-117.261673,32.816708],[-117.261688,32.816628],[-117.261681,32.816559],[-117.261597,32.816425],[-117.261543,32.81638],[-117.261391,32.816326],[-117.2612,32.816307],[-117.261017,32.816311],[-117.260857,32.816292],[-117.260696,32.816246],[-117.260521,32.816162],[-117.260353,32.816128],[-117.260109,32.816139],[-117.25985,32.816223],[-117.259399,32.816513]]}},{"type":"Feature","properties":{"osm_id":6011207,"highway":"residential","name":"Kaimalino Lane"},"geometry":{"type":"LineString","coordinates":[[-117.2506833,32.8137922],[-117.2505779,32.8138774],[-117.25029,32.813927],[-117.250076,32.813896],[-117.2499981,32.8138637],[-117.249893,32.81382]]}},{"type":"Feature","properties":{"osm_id":6013553,"highway":"residential","name":"Alta la Jolla Drive"},"geometry":{"type":"LineString","coordinates":[[-117.24968,32.820244],[-117.2493288,32.8202854],[-117.2489726,32.8203637],[-117.2484955,32.8204985],[-117.2481698,32.820636],[-117.2478646,32.8208024],[-117.2471793,32.8212791],[-117.2465872,32.8216902],[-117.246335,32.8218391],[-117.2460886,32.8219462],[-117.2458436,32.8220308],[-117.2455685,32.8220941],[-117.2452509,32.8221434],[-117.2450522,32.8221588],[-117.2444078,32.8221178],[-117.244278,32.822094],[-117.244072,32.822052],[-117.243874,32.821964],[-117.243713,32.82185],[-117.243652,32.821785],[-117.243156,32.821186],[-117.242432,32.819363],[-117.242348,32.818943],[-117.24231,32.81884],[-117.242203,32.81868],[-117.242126,32.818596],[-117.241982,32.818485],[-117.241386,32.818256]]}},{"type":"Feature","properties":{"osm_id":6014393,"highway":"secondary","name":"Turquoise Street"},"geometry":{"type":"LineString","coordinates":[[-117.2557446,32.8093773],[-117.2557836,32.8093688],[-117.2560104,32.8093198],[-117.2560372,32.809314],[-117.2561326,32.8092933],[-117.2566771,32.809187],[-117.2567463,32.8091724],[-117.2569077,32.8091348],[-117.2574494,32.8090166],[-117.2575998,32.8089842],[-117.2579729,32.8089009],[-117.2586471,32.8087586],[-117.2588938,32.8087065],[-117.2590602,32.8086756],[-117.2592223,32.8086501]]}},{"type":"Feature","properties":{"osm_id":6028703,"highway":"residential","name":"Caminito Acento"},"geometry":{"type":"LineString","coordinates":[[-117.251813,32.8180904],[-117.251793,32.818153],[-117.251762,32.818188],[-117.2517029,32.8182137],[-117.251633,32.818233],[-117.251389,32.818268],[-117.251129,32.818268],[-117.249863,32.818184],[-117.249557,32.818184],[-117.249252,32.818203],[-117.248947,32.818272],[-117.2488083,32.818333],[-117.248749,32.818359],[-117.248596,32.818447],[-117.24852,32.818512]]}},{"type":"Feature","properties":{"osm_id":6030709,"highway":"residential","name":"Lamplight Drive"},"geometry":{"type":"LineString","coordinates":[[-117.259773,32.814327],[-117.258728,32.814346]]}},{"type":"Feature","properties":{"osm_id":6039535,"highway":"residential","name":"Taft Avenue"},"geometry":{"type":"LineString","coordinates":[[-117.2612336,32.8123393],[-117.2627437,32.8136189],[-117.2642697,32.8149238]]}},{"type":"Feature","properties":{"osm_id":6041300,"highway":"residential","name":"Sandpiper Place"},"geometry":{"type":"LineString","coordinates":[[-117.2632599,32.8170745],[-117.262688,32.817116],[-117.262589,32.817108],[-117.262497,32.817081]]}},{"type":"Feature","properties":{"osm_id":6043437,"highway":"residential","name":"Via Zurita"},"geometry":{"type":"LineString","coordinates":[[-117.250336,32.8222787],[-117.250397,32.82296],[-117.250397,32.823097],[-117.250359,32.823189],[-117.250298,32.823269],[-117.250107,32.823395],[-117.25,32.823437],[-117.249153,32.823616],[-117.249023,32.82362],[-117.248896,32.823605],[-117.2487596,32.8235596],[-117.248642,32.823505]]}},{"type":"Feature","properties":{"osm_id":6044029,"highway":"residential","name":"Baja Mar"},"geometry":{"type":"LineString","coordinates":[[-117.259262,32.81818],[-117.259232,32.818314],[-117.259293,32.818512],[-117.259392,32.818642]]}},{"type":"Feature","properties":{"osm_id":6044361,"highway":"residential","name":"Caminito Turia"},"geometry":{"type":"LineString","coordinates":[[-117.2501749,32.8201658],[-117.2500029,32.8201911]]}},{"type":"Feature","properties":{"osm_id":6047146,"highway":"residential","name":"Bellevue Place"},"geometry":{"type":"LineString","coordinates":[[-117.2610806,32.8119008],[-117.2611532,32.811915],[-117.2618011,32.8117757],[-117.261851,32.8117732]]}},{"type":"Feature","properties":{"osm_id":6047414,"highway":"residential","name":"Everts Street"},"geometry":{"type":"LineString","coordinates":[[-117.252663,32.812065],[-117.252724,32.812263],[-117.252724,32.812588],[-117.252602,32.812798]]}},{"type":"Feature","properties":{"osm_id":6048076,"highway":"residential","name":"Paseo Bonita"},"geometry":{"type":"LineString","coordinates":[[-117.256027,32.820335],[-117.255028,32.820568]]}},{"type":"Feature","properties":{"osm_id":6049052,"highway":"tertiary","name":"Cardeno Drive"},"geometry":{"type":"LineString","coordinates":[[-117.24968,32.820244],[-117.24968,32.820576],[-117.249603,32.820911],[-117.249474,32.821178],[-117.2492923,32.8214474],[-117.2491584,32.8216459]]}},{"type":"Feature","properties":{"osm_id":6049053,"highway":"tertiary","name":"Cardeno Drive"},"geometry":{"type":"LineString","coordinates":[[-117.247911,32.8167265],[-117.247818,32.816822],[-117.247688,32.817028],[-117.247643,32.817146],[-117.247612,32.817337],[-117.247621,32.817417],[-117.247627,32.817532],[-117.247704,32.817741],[-117.247833,32.817928],[-117.247849,32.817944],[-117.24852,32.818512],[-117.248756,32.818703],[-117.248878,32.818806],[-117.249092,32.819031],[-117.249184,32.819153],[-117.24955,32.819771],[-117.249641,32.819962],[-117.249672,32.820068],[-117.24968,32.820244]]}},{"type":"Feature","properties":{"osm_id":6051495,"highway":"residential","name":"Emergency Access"},"geometry":{"type":"LineString","coordinates":[[-117.251137,32.813358],[-117.251186,32.8134901]]}},{"type":"Feature","properties":{"osm_id":6052118,"highway":"residential","name":"Van Nuys Place"},"geometry":{"type":"LineString","coordinates":[[-117.253326,32.812862],[-117.253406,32.8131821],[-117.25341,32.813198]]}},{"type":"Feature","properties":{"osm_id":6052153,"highway":"residential","name":"Van Nuys Court"},"geometry":{"type":"LineString","coordinates":[[-117.254128,32.812683],[-117.254227,32.813015]]}},{"type":"Feature","properties":{"osm_id":6053162,"highway":"residential","name":"Corral Way"},"geometry":{"type":"LineString","coordinates":[[-117.260559,32.820377],[-117.260689,32.820919],[-117.260689,32.821278],[-117.260643,32.821507],[-117.260559,32.82169]]}},{"type":"Feature","properties":{"osm_id":6054491,"highway":"residential","name":"Van Nuys Way"},"geometry":{"type":"LineString","coordinates":[[-117.255478,32.812424],[-117.2553666,32.8126621],[-117.255192,32.8129315],[-117.2552026,32.8129929]]}},{"type":"Feature","properties":{"osm_id":6056031,"highway":"residential","name":"Caminito Heraldo"},"geometry":{"type":"LineString","coordinates":[[-117.252482,32.8142193],[-117.2521664,32.8147311]]}},{"type":"Feature","properties":{"osm_id":31822057,"highway":"secondary","name":"Turquoise Street"},"geometry":{"type":"LineString","coordinates":[[-117.255524,32.809425],[-117.2549726,32.8095412],[-117.2547629,32.8095853],[-117.2545893,32.8096219],[-117.253693,32.809811],[-117.252197,32.810135],[-117.250313,32.810547],[-117.2501536,32.8105685],[-117.250124,32.8105725],[-117.250031,32.810585]]}},{"type":"Feature","properties":{"osm_id":35340208,"highway":"tertiary","name":"Fanuel Street"},"geometry":{"type":"LineString","coordinates":[[-117.247803,32.80323],[-117.247932,32.803692],[-117.248077,32.804165],[-117.248222,32.804626],[-117.24836,32.805088],[-117.248497,32.805565],[-117.248642,32.80603],[-117.2487823,32.8064978],[-117.248792,32.80653],[-117.248932,32.806976],[-117.249237,32.807976],[-117.2493785,32.8084346],[-117.249496,32.808861],[-117.2495283,32.8089506],[-117.2500012,32.8104891],[-117.2500074,32.8105091],[-117.250031,32.810585]]}},{"type":"Feature","properties":{"osm_id":38093581,"highway":"residential","name":"Colima Street"},"geometry":{"type":"LineString","coordinates":[[-117.2663365,32.8112323],[-117.2662284,32.8112571],[-117.2661178,32.811282],[-117.2656518,32.8113798],[-117.2655221,32.8114084],[-117.2653837,32.8114353],[-117.264954,32.811523],[-117.2645338,32.8116146],[-117.2644148,32.811635],[-117.2643257,32.8116548],[-117.263901,32.811749],[-117.263329,32.811871],[-117.262833,32.811981],[-117.2623007,32.8121102],[-117.2617646,32.8122253],[-117.2612336,32.8123393],[-117.2607156,32.8124567],[-117.2605847,32.8124732],[-117.2603503,32.8124652]]}},{"type":"Feature","properties":{"osm_id":38093582,"highway":"residential","name":"Midway Street"},"geometry":{"type":"LineString","coordinates":[[-117.2678036,32.8125281],[-117.2676464,32.8125675],[-117.2671455,32.8126753],[-117.267037,32.8126989],[-117.2669359,32.8127204],[-117.2664641,32.812826],[-117.2659388,32.8129344],[-117.265404,32.813046],[-117.2648792,32.8131638],[-117.264343,32.813274],[-117.2638063,32.8133921],[-117.2632749,32.8135081],[-117.2627437,32.8136189],[-117.2622144,32.8137421],[-117.2616907,32.8138571]]}},{"type":"Feature","properties":{"osm_id":220690484,"natural":"scrub"},"geometry":{"type":"Polygon","coordinates":[[[-117.255655,32.8131451],[-117.2558298,32.8131046],[-117.2558171,32.8131803],[-117.255627,32.8133186],[-117.2555776,32.8135235],[-117.2557399,32.8136981],[-117.255649,32.8138455],[-117.2553178,32.8137964],[-117.2551555,32.8137582],[-117.2550775,32.8137582],[-117.2548697,32.8142876],[-117.2548892,32.8144076],[-117.254597,32.8147733],[-117.2545775,32.815068],[-117.25461,32.8153628],[-117.2544346,32.8158376],[-117.2543112,32.8158703],[-117.2538761,32.8158758],[-117.2535255,32.816236],[-117.2535255,32.8171202],[-117.2538631,32.8173057],[-117.2536553,32.8191886],[-117.2535709,32.8196197],[-117.2533241,32.8197125],[-117.2536878,32.8205639],[-117.2541118,32.8203459],[-117.2545126,32.8207713],[-117.2544304,32.8208258],[-117.2542224,32.8209177],[-117.2538177,32.8211369],[-117.2538956,32.8215953],[-117.2542138,32.8218573],[-117.2542788,32.8219774],[-117.2540645,32.8219828],[-117.2537463,32.8218846],[-117.2535255,32.8213825],[-117.2530774,32.8208258],[-117.2528306,32.8207931],[-117.2526552,32.8210605],[-117.2526617,32.8213279],[-117.252337,32.8218191],[-117.2524474,32.822021],[-117.2520058,32.8225504],[-117.2521422,32.8227741],[-117.2521422,32.8232926],[-117.2522526,32.823942],[-117.2524032,32.8244223],[-117.2525247,32.8245973],[-117.2524292,32.8254727],[-117.2526528,32.8258518],[-117.2528393,32.8259652],[-117.2526896,32.8264283],[-117.2528849,32.8267381],[-117.2530692,32.8270306],[-117.2529452,32.8273924],[-117.2528159,32.8274312],[-117.2523598,32.8268003],[-117.2518736,32.8258301],[-117.2515265,32.825462],[-117.251215,32.8255255],[-117.2509365,32.8257275],[-117.2505629,32.8262386],[-117.2504327,32.8264866],[-117.2504934,32.8270483],[-117.2508667,32.8284707],[-117.2511184,32.8288791],[-117.2515264,32.8289958],[-117.2514396,32.8294262],[-117.2510837,32.8294554],[-117.250831,32.8290909],[-117.2506186,32.8293442],[-117.2505339,32.8299273],[-117.2506792,32.8302919],[-117.2511036,32.8307585],[-117.2511266,32.8314175],[-117.2509506,32.831685],[-117.2507466,32.8315412],[-117.2506449,32.8309367],[-117.2503402,32.8307088],[-117.2497654,32.8307525],[-117.2496577,32.83013],[-117.2500593,32.8300037],[-117.2501858,32.8297528],[-117.2500494,32.8293092],[-117.250356,32.8291648],[-117.2505438,32.8288903],[-117.2504434,32.8284987],[-117.2503641,32.8284415],[-117.2499569,32.826898],[-117.2500421,32.8265887],[-117.2500073,32.8262678],[-117.2501289,32.8259541],[-117.2501462,32.8256842],[-117.2501169,32.8253837],[-117.2504858,32.8252475],[-117.2507656,32.8251382],[-117.2511556,32.824789],[-117.2511632,32.8246498],[-117.2510535,32.8243747],[-117.2511306,32.8242734],[-117.2509448,32.8236491],[-117.2507625,32.8235907],[-117.250832,32.8234667],[-117.2509535,32.8231968],[-117.2509796,32.8227445],[-117.2509795,32.8220755],[-117.2507119,32.8216997],[-117.250557,32.8216672],[-117.250284,32.8217189],[-117.2502471,32.8215074],[-117.2505745,32.8215183],[-117.2513157,32.8213911],[-117.2515463,32.8209842],[-117.2515111,32.820854],[-117.2519266,32.8200698],[-117.2520074,32.8191768],[-117.2519074,32.8189848],[-117.2521678,32.8189039],[-117.2523474,32.8185976],[-117.2523685,32.8182706],[-117.2521801,32.8164981],[-117.252215,32.8162175],[-117.2524389,32.8156828],[-117.2527224,32.8154475],[-117.2527734,32.8153291],[-117.2528139,32.815122],[-117.2531731,32.8145745],[-117.2532699,32.8143792],[-117.2533985,32.8142534],[-117.2534389,32.8140344],[-117.2534161,32.8136897],[-117.2534192,32.813607],[-117.2537731,32.8135325],[-117.2539618,32.8134175],[-117.2544801,32.8133271],[-117.2546767,32.8129601],[-117.2550239,32.8128177],[-117.2551833,32.812568],[-117.2553196,32.8126284],[-117.2550636,32.8130866],[-117.2551039,32.8132559],[-117.255655,32.8131451]]]}},{"type":"Feature","properties":{"osm_id":323749283,"highway":"secondary","name":"Foothill Boulevard"},"geometry":{"type":"LineString","coordinates":[[-117.246203,32.8080967],[-117.246651,32.808537],[-117.24678,32.808693],[-117.2469507,32.8089615],[-117.2469642,32.8089819],[-117.247032,32.809113],[-117.247131,32.809383],[-117.247162,32.80949],[-117.247276,32.80965],[-117.247437,32.809746],[-117.248077,32.809937],[-117.248817,32.810139],[-117.249153,32.810257],[-117.249733,32.810539],[-117.249847,32.81057],[-117.2499173,32.8105757],[-117.250031,32.810585]]}},{"type":"Feature","properties":{"osm_id":652999978,"highway":"residential","name":"Emergency Access"},"geometry":{"type":"LineString","coordinates":[[-117.251186,32.8134901],[-117.251213,32.81356],[-117.251244,32.813755],[-117.251251,32.813808],[-117.251343,32.81403],[-117.25135,32.814087],[-117.251328,32.814194],[-117.251297,32.814236],[-117.2512731,32.814674]]}},{"type":"Feature","properties":{"osm_id":663875106,"highway":"secondary","name":"Turquoise Street"},"geometry":{"type":"LineString","coordinates":[[-117.255524,32.809425],[-117.2557446,32.8093773]]}},{"type":"Feature","properties":{"osm_id":672296226,"highway":"residential","name":"Caminito Turia"},"geometry":{"type":"LineString","coordinates":[[-117.2500029,32.8201911],[-117.2499347,32.8202011],[-117.24968,32.820244]]}},{"type":"Feature","properties":{"osm_id":1024173607,"highway":"residential","name":"Sapphire Street"},"geometry":{"type":"LineString","coordinates":[[-117.2608054,32.8073654],[-117.2607187,32.8073959],[-117.2606997,32.8074026],[-117.2589071,32.8078062],[-117.2566545,32.8082795],[-117.2553917,32.8085519],[-117.2552611,32.8085801],[-117.2551396,32.8086048],[-117.253433,32.808952],[-117.2518715,32.8092953]]}},{"type":"Feature","properties":{"osm_id":1028924700,"highway":"tertiary","name":"Fanuel Street"},"geometry":{"type":"LineString","coordinates":[[-117.250031,32.810585],[-117.2500687,32.810702],[-117.250076,32.8107246],[-117.2501982,32.8111036],[-117.2503762,32.8116101],[-117.2505122,32.8120331],[-117.250526,32.812073],[-117.25058,32.812328],[-117.25058,32.812519]]}},{"type":"Feature","properties":{"osm_id":1090802914,"highway":"tertiary","name":"Cass Street"},"geometry":{"type":"LineString","coordinates":[[-117.255386,32.809013],[-117.2554786,32.8092896],[-117.255524,32.809425]]}},{"type":"Feature","properties":{"osm_id":1090802915,"highway":"tertiary","name":"Cass Street"},"geometry":{"type":"LineString","coordinates":[[-117.255524,32.809425],[-117.255579,32.809597],[-117.2556832,32.8099303],[-117.2558257,32.8104424],[-117.2559684,32.8109016],[-117.2560927,32.8113504],[-117.2562478,32.8117902],[-117.256371,32.8122288]]}},{"type":"Feature","properties":{"osm_id":1090802920,"highway":"tertiary","name":"Cardeno Drive"},"geometry":{"type":"LineString","coordinates":[[-117.25058,32.812519],[-117.250526,32.812885],[-117.250488,32.81303],[-117.25032,32.813301],[-117.249893,32.81382],[-117.24955,32.814285],[-117.249474,32.814476],[-117.249199,32.815079],[-117.249123,32.815208],[-117.24881,32.815704],[-117.248512,32.816071],[-117.248268,32.81638],[-117.248123,32.816509]]}},{"type":"Feature","properties":{"osm_id":1090802921,"highway":"tertiary","name":"La Jolla Mesa Drive"},"geometry":{"type":"LineString","coordinates":[[-117.2602746,32.8127609],[-117.2600883,32.8131691]]}},{"type":"Feature","properties":{"osm_id":1090802922,"highway":"tertiary","name":"La Jolla Mesa Drive"},"geometry":{"type":"LineString","coordinates":[[-117.259962,32.8134824],[-117.259773,32.814327]]}},{"type":"Feature","properties":{"osm_id":1090802923,"highway":"tertiary","name":"La Jolla Mesa Drive"},"geometry":{"type":"LineString","coordinates":[[-117.2592223,32.8086501],[-117.2593194,32.8087895],[-117.2594197,32.8091103],[-117.2595789,32.8096238],[-117.2597173,32.8100801],[-117.25985,32.8105306],[-117.2599876,32.8109747],[-117.260116,32.8114221],[-117.2602441,32.811825],[-117.2603374,32.8121537]]}},{"type":"Feature","properties":{"osm_id":1090802924,"highway":"tertiary","name":"La Jolla Mesa Drive"},"geometry":{"type":"LineString","coordinates":[[-117.2585612,32.8198787],[-117.258522,32.82037]]}},{"type":"Feature","properties":{"osm_id":1090802925,"highway":"tertiary","name":"La Jolla Mesa Drive"},"geometry":{"type":"LineString","coordinates":[[-117.258522,32.82037],[-117.258453,32.820839],[-117.258293,32.821392],[-117.2575329,32.8235453],[-117.257462,32.823746]]}},{"type":"Feature","properties":{"osm_id":1090802926,"highway":"tertiary","name":"La Jolla Mesa Drive"},"geometry":{"type":"LineString","coordinates":[[-117.257462,32.823746],[-117.257393,32.823944],[-117.2573549,32.8241463],[-117.257347,32.824188],[-117.2573737,32.8243981],[-117.257378,32.824432],[-117.257446,32.824638],[-117.257607,32.824879],[-117.257713,32.824978],[-117.257927,32.825134],[-117.258247,32.825268],[-117.258568,32.8253416],[-117.2595593,32.825523],[-117.2597991,32.825594],[-117.2600055,32.8256776],[-117.260208,32.825813],[-117.26032,32.825898],[-117.260422,32.825981],[-117.2605395,32.8261201],[-117.260643,32.826271],[-117.2607128,32.8264022],[-117.260773,32.826538],[-117.2607847,32.8265765],[-117.2608067,32.8266439],[-117.260963,32.827114],[-117.261017,32.827229],[-117.261147,32.827419],[-117.261253,32.827538]]}},{"type":"Feature","properties":{"osm_id":1415515307,"highway":"residential","name":"Van Nuys Street"},"geometry":{"type":"LineString","coordinates":[[-117.256371,32.8122288],[-117.2555377,32.8124104],[-117.255478,32.812424]]}},{"type":"Feature","properties":{"osm_id":1452268509,"highway":"tertiary","name":"La Jolla Mesa Drive"},"geometry":{"type":"LineString","coordinates":[[-117.2600883,32.8131691],[-117.2600003,32.8133804],[-117.259962,32.8134824]]}},{"type":"Feature","properties":{"osm_id":1452599248,"highway":"tertiary","name":"La Jolla Mesa Drive"},"geometry":{"type":"LineString","coordinates":[[-117.2603374,32.8121537],[-117.260361,32.812237],[-117.2603521,32.8123622],[-117.2603503,32.8124652]]}},{"type":"Feature","properties":{"osm_id":1452599249,"highway":"tertiary","name":"La Jolla Mesa Drive"},"geometry":{"type":"LineString","coordinates":[[-117.2603503,32.8124652],[-117.2602746,32.8127609]]}},{"type":"Feature","properties":{"osm_id":1458613859,"highway":"tertiary","name":"Van Nuys Street"},"geometry":{"type":"LineString","coordinates":[[-117.260116,32.8114221],[-117.258205,32.8118344],[-117.256371,32.8122288]]}},{"type":"Feature","properties":{"osm_id":1458736453,"highway":"tertiary","name":"La Jolla Mesa Drive"},"geometry":{"type":"LineString","coordinates":[[-117.259773,32.814327],[-117.2597037,32.8146551]]}},{"type":"Feature","properties":{"osm_id":1459439675,"highway":"tertiary","name":"La Jolla Mesa Drive"},"geometry":{"type":"LineString","coordinates":[[-117.2597037,32.8146551],[-117.259644,32.814938],[-117.25956,32.815102],[-117.259331,32.815399],[-117.259201,32.815613],[-117.259148,32.8158],[-117.25914,32.815987],[-117.259216,32.8162],[-117.2592735,32.8163125]]}},{"type":"Feature","properties":{"osm_id":1459439676,"highway":"tertiary","name":"La Jolla Mesa Drive"},"geometry":{"type":"LineString","coordinates":[[-117.2592735,32.8163125],[-117.259331,32.816425],[-117.259399,32.816513]]}},{"type":"Feature","properties":{"osm_id":1459439677,"highway":"residential","name":"Skylark Drive"},"geometry":{"type":"LineString","coordinates":[[-117.259399,32.816513],[-117.259117,32.816643],[-117.259048,32.8167],[-117.259003,32.816772],[-117.258789,32.817257]]}},{"type":"Feature","properties":{"osm_id":1459567277,"highway":"residential","name":"Dawes Street"},"geometry":{"type":"LineString","coordinates":[[-117.252598,32.8061941],[-117.2526613,32.8064075],[-117.2527655,32.8067446],[-117.252892,32.807178],[-117.253029,32.807629],[-117.253166,32.808067],[-117.253304,32.808521],[-117.253433,32.808952],[-117.253571,32.80941],[-117.253693,32.809811],[-117.2538433,32.8103226],[-117.2540073,32.8108308],[-117.254143,32.811279],[-117.254257,32.811714]]}},{"type":"Feature","properties":{"osm_id":1469371498,"highway":"tertiary","name":"La Jolla Mesa Drive"},"geometry":{"type":"LineString","coordinates":[[-117.2592395,32.8187489],[-117.259148,32.818813],[-117.259003,32.818939],[-117.25885,32.819103],[-117.258743,32.819252],[-117.2586484,32.8194581],[-117.258636,32.819485],[-117.258568,32.819794],[-117.2585612,32.8198787]]}},{"type":"Feature","properties":{"osm_id":1469371499,"highway":"tertiary","name":"La Jolla Mesa Drive"},"geometry":{"type":"LineString","coordinates":[[-117.259392,32.818642],[-117.2592395,32.8187489]]}},{"type":"Feature","properties":{"osm_id":1479585941,"natural":"scrub"},"geometry":{"type":"Polygon","coordinates":[[[-117.2630198,32.8158439],[-117.2630571,32.8157271],[-117.262931,32.8155831],[-117.2627572,32.8156494],[-117.2624837,32.815421],[-117.2614628,32.8146125],[-117.2610184,32.8146014],[-117.2610077,32.8147562],[-117.2608022,32.8149468],[-117.2606741,32.8154828],[-117.2604933,32.8154808],[-117.2604206,32.8155501],[-117.2603752,32.8156645],[-117.2604792,32.8157547],[-117.2606601,32.8158253],[-117.2608308,32.8158601],[-117.2609434,32.8158193],[-117.2611918,32.8154626],[-117.2613386,32.8152272],[-117.2615601,32.8150747],[-117.2618803,32.8152159],[-117.2619363,32.8153438],[-117.2619017,32.8155692],[-117.2620031,32.8158226],[-117.261907,32.8162431],[-117.261947,32.8164943],[-117.2622486,32.8165459],[-117.2626355,32.8160659],[-117.2630198,32.8158439]]]}},{"type":"Feature","properties":{"osm_id":1479585942,"natural":"scrub"},"geometry":{"type":"Polygon","coordinates":[[[-117.2586415,32.8187126],[-117.2586404,32.8186642],[-117.2586964,32.8183346],[-117.2584403,32.81783],[-117.2580682,32.8173152],[-117.2579707,32.8173425],[-117.257887,32.8172878],[-117.2578173,32.8169852],[-117.2575943,32.8171785],[-117.2578522,32.8175612],[-117.2578893,32.8179829],[-117.2577476,32.8185647],[-117.257513,32.8190293],[-117.256988,32.819533],[-117.2565741,32.8197682],[-117.2564915,32.8199792],[-117.2567278,32.8202944],[-117.2565419,32.8204643],[-117.2568811,32.8207727],[-117.2567766,32.8213194],[-117.2565675,32.8217957],[-117.2561981,32.8221862],[-117.2558543,32.8223599],[-117.2557335,32.8224653],[-117.2559054,32.8225844],[-117.2562469,32.822479],[-117.2566581,32.8223755],[-117.2567045,32.8224575],[-117.2567464,32.8230374],[-117.2571041,32.8231818],[-117.2572877,32.8227269],[-117.2570879,32.8226098],[-117.257132,32.822481],[-117.2569647,32.8223912],[-117.2570623,32.821946],[-117.2572389,32.8219656],[-117.2573062,32.8216962],[-117.2575502,32.8212374],[-117.2577221,32.8208157],[-117.2576315,32.8202651],[-117.2576617,32.8200641],[-117.2584004,32.8199352],[-117.258536,32.8192739],[-117.2583482,32.818794],[-117.2585959,32.8187473],[-117.2586415,32.8187126]]]}},{"type":"Feature","properties":{"osm_id":1479945661,"natural":"scrub"},"geometry":{"type":"Polygon","coordinates":[[[-117.2602591,32.8189594],[-117.2602575,32.819029],[-117.2601916,32.8190728],[-117.2600767,32.8191076],[-117.259951,32.8190676],[-117.2598146,32.8192853],[-117.2598023,32.8194322],[-117.2598974,32.8195107],[-117.2600445,32.8195455],[-117.2603235,32.8195056],[-117.2617489,32.8191746],[-117.2619634,32.8191939],[-117.2623619,32.8191591],[-117.262434,32.8193317],[-117.2623466,32.8194721],[-117.2624738,32.8196176],[-117.2622792,32.8200028],[-117.2622117,32.820272],[-117.2621014,32.8203299],[-117.2618607,32.8203918],[-117.2617795,32.8204858],[-117.2617504,32.8205888],[-117.2616048,32.8207241],[-117.2614638,32.8207318],[-117.2614806,32.8209225],[-117.2616836,32.8215771],[-117.2614804,32.8217742],[-117.2610954,32.8214851],[-117.2611758,32.8211911],[-117.2613586,32.8211033],[-117.2612598,32.8208404],[-117.2613442,32.8207344],[-117.2612829,32.8206584],[-117.2611128,32.8206713],[-117.2610913,32.8204871],[-117.2612262,32.8204278],[-117.2612661,32.8203737],[-117.2614117,32.8203338],[-117.2614868,32.8202797],[-117.2615343,32.8201882],[-117.2615312,32.8200775],[-117.2614638,32.8199152],[-117.2613166,32.8198521],[-117.2612323,32.8199152],[-117.2611652,32.8199819],[-117.2610745,32.8200642],[-117.2609513,32.8200809],[-117.2608691,32.8200839],[-117.2606928,32.8200466],[-117.2606269,32.8199834],[-117.2605411,32.819995],[-117.2604154,32.8198173],[-117.2602913,32.8198611],[-117.2602422,32.8199783],[-117.2602989,32.820129],[-117.2602959,32.8202655],[-117.2601242,32.8203196],[-117.2600552,32.8204459],[-117.2600736,32.8205772],[-117.2601549,32.8205953],[-117.2601732,32.8207447],[-117.2601196,32.8207833],[-117.259859,32.8207743],[-117.2597088,32.8207382],[-117.2596307,32.820518],[-117.2597088,32.8203686],[-117.2596429,32.8202153],[-117.2595525,32.8201509],[-117.2593333,32.8201882],[-117.2592092,32.8201651],[-117.259085,32.8200324],[-117.2589946,32.8199719],[-117.2589471,32.8198031],[-117.2591096,32.8197426],[-117.2591862,32.8195069],[-117.2592644,32.8193265],[-117.2594176,32.8191591],[-117.2596062,32.8189221],[-117.2599341,32.8187817],[-117.2602054,32.8185254],[-117.260492,32.8181943],[-117.2605733,32.8179367],[-117.2606346,32.8176302],[-117.26082,32.8175181],[-117.2610132,32.8175529],[-117.2609519,32.8177113],[-117.2611235,32.8178324],[-117.2612277,32.8179238],[-117.2614147,32.8179316],[-117.2614438,32.8180346],[-117.261125,32.8181518],[-117.2610009,32.8183489],[-117.2608921,32.8185563],[-117.2608982,32.8186452],[-117.2608476,32.8187044],[-117.260535,32.8188087],[-117.2604874,32.818792],[-117.2602851,32.81885],[-117.2602545,32.818895],[-117.2602591,32.8189594]]]}},{"type":"Feature","properties":{"osm_id":1479945662,"natural":"scrub"},"geometry":{"type":"Polygon","coordinates":[[[-117.2645317,32.8192764],[-117.264463,32.8191063],[-117.2644366,32.8189657],[-117.2644225,32.8187216],[-117.2642923,32.8184997],[-117.2641144,32.8182126],[-117.2639472,32.8180484],[-117.2638398,32.8179167],[-117.263794,32.8177791],[-117.2643926,32.8176089],[-117.2643715,32.8174995],[-117.2641461,32.8174432],[-117.2636708,32.8175024],[-117.2635845,32.8172893],[-117.2626848,32.8174861],[-117.2624947,32.8175557],[-117.2625616,32.817859],[-117.2631443,32.8177554],[-117.2633415,32.8177569],[-117.2634665,32.8178723],[-117.2637535,32.8179552],[-117.2639947,32.8182718],[-117.2641866,32.8185914],[-117.2641109,32.8187364],[-117.2641937,32.818945],[-117.2642324,32.8192321],[-117.2645123,32.8195132],[-117.2647236,32.8194629],[-117.2645317,32.8192764]]]}},{"type":"Feature","properties":{"osm_id":1493294779,"natural":"scrub"},"geometry":{"type":"Polygon","coordinates":[[[-117.2632057,32.8225079],[-117.2631531,32.8224756],[-117.2630196,32.8225385],[-117.2629569,32.8224433],[-117.2621459,32.8230127],[-117.2621055,32.8231554],[-117.2622066,32.8235786],[-117.2621742,32.8237707],[-117.2621945,32.8238182],[-117.2618769,32.8242278],[-117.2614199,32.8246255],[-117.2607808,32.8249416],[-117.2606635,32.8247054],[-117.2604815,32.8247666],[-117.2605017,32.8248039],[-117.2605644,32.825081],[-117.2601559,32.8251506],[-117.2599435,32.8253937],[-117.2598525,32.8255466],[-117.2600244,32.8256282],[-117.2603136,32.8254446],[-117.2606574,32.8253444],[-117.2607727,32.8255245],[-117.2609284,32.8255976],[-117.261074,32.8255636],[-117.2612702,32.8254328],[-117.261434,32.8254803],[-117.2615412,32.825358],[-117.261608,32.8251166],[-117.2617596,32.8248804],[-117.2620347,32.8246646],[-117.2624527,32.8245995],[-117.2625083,32.8244968],[-117.2624392,32.824481],[-117.2622753,32.8242465],[-117.2624189,32.8241377],[-117.262425,32.8240851],[-117.2624028,32.8239763],[-117.2624574,32.8238896],[-117.2624695,32.8236806],[-117.2624513,32.8234613],[-117.2624048,32.823288],[-117.262603,32.8230297],[-117.2627789,32.8228546],[-117.2629407,32.8226558],[-117.2632057,32.8225079]]]}},{"type":"Feature","properties":{"osm_id":1493294841,"natural":"scrub"},"geometry":{"type":"Polygon","coordinates":[[[-117.2640512,32.8244156],[-117.2638837,32.8245072],[-117.2639171,32.8247913],[-117.263933,32.8249096],[-117.2637983,32.8249362],[-117.2636706,32.8248771],[-117.2633291,32.8248179],[-117.2630984,32.8248179],[-117.2631196,32.824738],[-117.2628643,32.8247276],[-117.2626653,32.8247054],[-117.2625403,32.8246315],[-117.2624527,32.8245995],[-117.2625083,32.8244968],[-117.2626776,32.8245387],[-117.2629167,32.8245979],[-117.2631987,32.8246185],[-117.2634348,32.8245696],[-117.263668,32.8242517],[-117.2640512,32.8244156]]]}},{"type":"Feature","properties":{"osm_id":1493577225,"natural":"scrub"},"geometry":{"type":"Polygon","coordinates":[[[-117.2526489,32.8134686],[-117.2523849,32.8133645],[-117.25235,32.8131944],[-117.2512381,32.813443],[-117.2512855,32.8137986],[-117.2513911,32.8140562],[-117.2513892,32.8141756],[-117.2513421,32.8143091],[-117.2513556,32.8143406],[-117.2515287,32.8142608],[-117.2515868,32.8142949],[-117.2516889,32.8142845],[-117.2518791,32.8143067],[-117.252122,32.8140063],[-117.2521836,32.8139975],[-117.2523456,32.8140655],[-117.2524724,32.8138007],[-117.2526489,32.8134686]]]}}]}
